H1 CPF  1  DLR 2022 08 05 10  7172 technosat            
H2  1704205 6203    42829 2022 08 05 00 00 00 2022 08 12 00 00 00    60 1 1  0 0 0
H9
10 0 59799  14400.000000  0      -4046277.041      -5180704.910      -2304454.063
10 0 59799  14460.000000  0      -4017196.907      -4997113.215      -2723946.865
10 0 59799  14520.000000  0      -3969445.274      -4792743.134      -3131846.610
10 0 59799  14580.000000  0      -3903055.639      -4568632.306      -3526424.414
10 0 59799  14640.000000  0      -3818149.984      -4325900.768      -3906010.436
10 0 59799  14700.000000  0      -3714938.690      -4065745.119      -4269000.923
10 0 59799  14760.000000  0      -3593720.029      -3789432.374      -4613864.954
10 0 59799  14820.000000  0      -3454879.207      -3498293.529      -4939150.791
10 0 59799  14880.000000  0      -3298886.995      -3193716.899      -5243491.805
10 0 59799  14940.000000  0      -3126297.963      -2877141.272      -5525611.973
10 0 59799  15000.000000  0      -2937748.325      -2550048.947      -5784330.946
10 0 59799  15060.000000  0      -2733953.427      -2213958.668      -6018568.703
10 0 59799  15120.000000  0      -2515704.838      -1870418.437      -6227349.780
10 0 59799  15180.000000  0      -2283867.063      -1520998.289      -6409806.963
10 0 59799  15240.000000  0      -2039373.958      -1167283.079      -6565184.503
10 0 59799  15300.000000  0      -1783224.844       -810865.300      -6692840.855
10 0 59799  15360.000000  0      -1516480.346       -453337.969      -6792250.913
10 0 59799  15420.000000  0      -1240258.020        -96287.643      -6863007.819
10 0 59799  15480.000000  0       -955727.688        258712.453      -6904824.396
10 0 59799  15540.000000  0       -664106.496        610109.208      -6917534.141
10 0 59799  15600.000000  0       -366653.758        956376.307      -6901091.691
10 0 59799  15660.000000  0        -64665.632       1296020.665      -6855572.788
10 0 59799  15720.000000  0        240530.334       1627588.619      -6781173.960
10 0 59799  15780.000000  0        547580.941       1949672.077      -6678211.816
10 0 59799  15840.000000  0        855113.324       2260914.417      -6547121.724
10 0 59799  15900.000000  0       1161740.981       2560016.055      -6388456.009
10 0 59799  15960.000000  0       1466069.851       2845739.820      -6202881.796
10 0 59799  16020.000000  0       1766704.556       3116916.058      -5991178.376
10 0 59799  16080.000000  0       2062254.710       3372447.345      -5754234.116
10 0 59799  16140.000000  0       2351341.246       3611312.895      -5493042.998
10 0 59799  16200.000000  0       2632602.764       3832572.696      -5208700.730
10 0 59799  16260.000000  0       2904701.891       4035371.301      -4902400.440
10 0 59799  16320.000000  0       3166331.635       4218941.253      -4575427.930
10 0 59799  16380.000000  0       3416221.659       4382606.113      -4229156.516
10 0 59799  16440.000000  0       3653144.438       4525783.062      -3865041.485
10 0 59799  16500.000000  0       3875921.361       4647985.120      -3484614.212
10 0 59799  16560.000000  0       4083428.663       4748822.893      -3089475.805
10 0 59799  16620.000000  0       4274603.089       4828005.831      -2681290.454
10 0 59799  16680.000000  0       4448447.318       4885343.052      -2261778.542
10 0 59799  16740.000000  0       4604035.199       4920743.767      -1832709.494
10 0 59799  16800.000000  0       4740516.744       4934217.238      -1395894.296
10 0 59799  16860.000000  0       4857122.759       4925872.149       -953177.744
10 0 59799  16920.000000  0       4953169.032       4895915.526       -506430.567
10 0 59799  16980.000000  0       5028060.160       4844651.196        -57541.428
10 0 59799  17040.000000  0       5081292.956       4772477.803        391591.149
10 0 59799  17100.000000  0       5112459.474       4679886.416        839066.892
10 0 59799  17160.000000  0       5121249.632       4567457.685       1282991.946
10 0 59799  17220.000000  0       5107453.392       4435858.566       1721487.032
10 0 59799  17280.000000  0       5070962.461       4285838.633       2152695.611
10 0 59799  17340.000000  0       5011771.421       4118225.934       2574791.941
10 0 59799  17400.000000  0       4929978.346       3933922.529       2985988.923
10 0 59799  17460.000000  0       4825784.951       3733899.702       3384545.744
10 0 59799  17520.000000  0       4699496.236       3519192.884       3768775.336
10 0 59799  17580.000000  0       4551519.607       3290896.284       4137051.524
10 0 59799  17640.000000  0       4382363.599       3050157.285       4487815.836
10 0 59799  17700.000000  0       4192636.212       2798170.731       4819584.071
10 0 59799  17760.000000  0       3983042.573       2536172.946       5130952.715
10 0 59799  17820.000000  0       3754382.044       2265435.594       5420604.686
10 0 59799  17880.000000  0       3507545.127       1987259.544       5687314.724
10 0 59799  17940.000000  0       3243509.916       1702968.580       5929954.473
10 0 59799  18000.000000  0       2963338.134       1413903.060       6147497.067
10 0 59799  18060.000000  0       2668170.797       1121413.581       6339021.286
10 0 59799  18120.000000  0       2359223.541        826854.724       6503715.245
10 0 59799  18180.000000  0       2037781.622        531578.873       6640879.718
10 0 59799  18240.000000  0       1705194.579        236930.092       6749931.057
10 0 59799  18300.000000  0       1362870.589        -55761.939       6830403.656
10 0 59799  18360.000000  0       1012270.506       -345187.929       6881951.943
10 0 59799  18420.000000  0        654901.644       -630064.870       6904351.787
10 0 59799  18480.000000  0        292311.369       -909141.666       6897501.477
10 0 59799  18540.000000  0        -73919.580      -1181204.618       6861422.270
10 0 59799  18600.000000  0       -442183.922      -1445082.738       6796258.402
10 0 59799  18660.000000  0       -810854.861      -1699652.821       6702276.622
10 0 59799  18720.000000  0      -1178293.232      -1943844.254       6579865.194
10 0 59799  18780.000000  0      -1542854.679      -2176643.530       6429532.452
10 0 59799  18840.000000  0      -1902896.935      -2397098.480       6251904.982
10 0 59799  18900.000000  0      -2256787.211      -2604322.269       6047725.358
10 0 59799  18960.000000  0      -2602909.680      -2797497.151       5817849.422
10 0 59799  19020.000000  0      -2939673.068      -2975877.914       5563242.990
10 0 59799  19080.000000  0      -3265518.201      -3138794.909       5284977.964
10 0 59799  19140.000000  0      -3578925.391      -3285656.704       4984227.963
10 0 59799  19200.000000  0      -3878421.693      -3415952.378       4662263.539
10 0 59799  19260.000000  0      -4162588.040      -3529253.413       4320446.955
10 0 59799  19320.000000  0      -4430066.203      -3625215.202       3960226.531
10 0 59799  19380.000000  0      -4679565.499      -3703578.130       3583130.574
10 0 59799  19440.000000  0      -4909869.278      -3764168.247       3190760.972
10 0 59799  19500.000000  0      -5119841.151      -3806897.565       2784786.381
10 0 59799  19560.000000  0      -5308430.897      -3831763.916       2366935.007
10 0 59799  19620.000000  0      -5474679.941      -3838850.335       1938987.033
10 0 59799  19680.000000  0      -5617726.388      -3828323.994       1502766.821
10 0 59799  19740.000000  0      -5736809.645      -3800434.709       1060134.872
10 0 59799  19800.000000  0      -5831274.553      -3755513.016        612979.604
10 0 59799  19860.000000  0      -5900575.002      -3693967.850        163208.970
10 0 59799  19920.000000  0      -5944277.021      -3616283.834       -287258.027
10 0 59799  19980.000000  0      -5962061.331      -3523018.183       -736499.921
10 0 59799  20040.000000  0      -5953725.272      -3414797.201      -1182601.405
10 0 59799  20100.000000  0      -5919184.084      -3292312.422      -1623661.873
10 0 59799  20160.000000  0      -5858471.589      -3156316.444      -2057803.801
10 0 59799  20220.000000  0      -5771740.345      -3007618.521      -2483180.959
10 0 59799  20280.000000  0      -5659261.216      -2847079.902      -2897986.510
10 0 59799  20340.000000  0      -5521422.310      -2675608.937      -3300460.867
10 0 59799  20400.000000  0      -5358727.368      -2494155.981      -3688899.241
10 0 59799  20460.000000  0      -5171793.616      -2303708.160      -4061658.902
10 0 59799  20520.000000  0      -4961349.078      -2105284.021      -4417166.115
10 0 59799  20580.000000  0      -4728229.368      -1899928.113      -4753922.717
10 0 59799  20640.000000  0      -4473374.003      -1688705.488      -5070512.315
10 0 59799  20700.000000  0      -4197822.214      -1472696.156      -5365606.070
10 0 59799  20760.000000  0      -3902708.330      -1252989.561      -5637967.998
10 0 59799  20820.000000  0      -3589256.782      -1030679.113      -5886459.834
10 0 59799  20880.000000  0      -3258776.732       -806856.773      -6110045.469
10 0 59799  20940.000000  0      -2912656.355       -582607.740      -6307794.901
10 0 59799  21000.000000  0      -2552356.823       -359005.270      -6478887.747
10 0 59799  21060.000000  0      -2179405.939       -137105.635      -6622616.300
10 0 59799  21120.000000  0      -1795391.527         82056.749      -6738388.010
10 0 59799  21180.000000  0      -1401954.704        297473.973      -6825727.559
10 0 59799  21240.000000  0      -1000782.928        508169.144      -6884278.564
10 0 59799  21300.000000  0       -593602.818        713200.741      -6913804.799
10 0 59799  21360.000000  0       -182172.829        911666.715      -6914190.872
10 0 59799  21420.000000  0        231724.128       1102708.278      -6885442.522
10 0 59799  21480.000000  0        646288.210       1285513.456      -6827686.622
10 0 59799  21540.000000  0       1059710.425       1459320.513      -6741170.708
99
